HELIOS 1B               
1 25977U 99064A   26076.98658945  .00001504  00000+0  17135-3 0  9992
2 25977  98.1688 339.4735 0002283  63.3103 296.8346 14.87731339686494
TERRA                   
1 25994U 99068A   26077.27680216  .00000396  00000+0  89845-4 0  9990
2 25994  97.9575 130.3828 0003204 132.8581 292.3535 14.61023876396336
SL-16 R/B               
1 26070U 00006B   26077.27868105 -.00000151  00000+0 -52334-4 0  9999
2 26070  71.0003  79.7757 0016296 176.8906 183.2322 14.15823894349777
TITAN 4B R/B            
1 26474U 00047B   26077.24356876  .00003567  00000+0  22559-3 0  9993
2 26474  67.9914  16.4554 0038927  25.2226 335.0812 15.09646678394206
ENVISAT                 
1 27386U 02009A   26077.31486652  .00000106  00000+0  48035-4 0  9994
2 27386  98.3743  30.7075 0001304  82.4766  37.9972 14.39040042260412
IDEFIX & ARIANE 42P R/B 
1 27422U 02021B   26077.30575999  .00000252  00000+0  11211-3 0  9998
2 27422  98.5880  15.8095 0012073 156.9215 203.2513 14.31032071245253
AQUA                    
1 27424U 02022A   26077.24925907  .00000920  00000+0  19328-3 0  9991
2 27424  98.4189  44.7710 0000720 109.5360   2.3209 14.61997303269989
CZ-4B R/B               
1 27432U 02024C   26077.13484034  .00000040  00000+0  43568-4 0  9998
2 27432  98.8820 130.4983 0050062   0.3099  53.6000 14.14549075230433
MIDORI II (ADEOS-II)    
1 27597U 02056A   26076.85423275  .00000262  00000+0  12060-3 0  9991
2 27597  98.7782  35.3889 0001271  32.8211 327.3050 14.29291363211461
H-2A R/B                
1 27601U 02056E   26076.87122971  .00000225  00000+0  93047-4 0  9992
2 27601  98.3217  36.9260 0070964 136.4791 278.6876 14.33766047215284
CZ-4B R/B               
1 28059U 03049C   26076.97948533  .00000305  00000+0  81697-4 0  9991
2 28059  98.6886  72.2100 0047625 205.1673 154.7202 14.55027899187806
CZ-2C R/B               
1 28222U 04012C   26077.11294419  .00047115  00000+0  46804-3 0  9998
2 28222  97.7213 143.2093 0012938 274.9057  85.0725 15.65523615205593
SL-16 R/B               
1 28353U 04021B   26076.80109887 -.00000260  00000+0 -11065-3 0  9995
2 28353  70.9997 215.4694 0004473 358.9291   1.1821 14.14594515123985
CZ-4B R/B               
1 28415U 04035C   26077.08898179  .00006008  00000+0  21182-3 0  9994
2 28415  97.3482 111.2311 0030214 300.3467  59.4786 15.29210484181193
CZ-2C R/B               
1 28480U 04046B   26076.75957540  .00000124  00000+0  60890-4 0  9992
2 28480  98.1981 351.2411 0140313 130.6844 230.6630 14.26994914109655
ARIANE 5 R/B            
1 28499U 04049H   26077.05364354  .00000656  00000+0  79089-4 0  9994
2 28499  98.2640 245.8245 0083363 324.6680  34.9026 14.85280858147033
CZ-2D R/B               
1 28738U 05024B   26077.30173609  .00031912  00000+0  38181-3 0  9999
2 28738  97.3582  92.7685 0004320  22.6307 337.5140 15.60919437141127
