[{"OBJECT_NAME":"HELIOS 1B","OBJECT_ID":"1999-064A","EPOCH":"2026-03-17T23:40:41.328480","MEAN_MOTION":14.87731339,"ECCENTRICITY":0.00022836,"INCLINATION":98.1688,"RA_OF_ASC_NODE":339.4735,"ARG_OF_PERICENTER":63.3103,"MEAN_ANOMALY":296.8346,"EPHEMERIS_TYPE":0,"CLASSIFICATION_TYPE":"U","NORAD_CAT_ID":25977,"ELEMENT_SET_NO":999,"REV_AT_EPOCH":68649,"BSTAR":0.00017135358,"MEAN_MOTION_DOT":1.504e-5,"MEAN_MOTION_DDOT":0},{"OBJECT_NAME":"TERRA","OBJECT_ID":"1999-068A","EPOCH":"2026-03-18T06:38:35.706624","MEAN_MOTION":14.61023876,"ECCENTRICITY":0.00032041,"INCLINATION":97.9575,"RA_OF_ASC_NODE":130.3828,"ARG_OF_PERICENTER":132.8581,"MEAN_ANOMALY":292.3535,"EPHEMERIS_TYPE":0,"CLASSIFICATION_TYPE":"U","NORAD_CAT_ID":25994,"ELEMENT_SET_NO":999,"REV_AT_EPOCH":39633,"BSTAR":8.9845345e-5,"MEAN_MOTION_DOT":3.96e-6,"MEAN_MOTION_DDOT":0},{"OBJECT_NAME":"SL-16 R/B","OBJECT_ID":"2000-006B","EPOCH":"2026-03-18T06:41:18.042720","MEAN_MOTION":14.15823894,"ECCENTRICITY":0.00162962,"INCLINATION":71.0003,"RA_OF_ASC_NODE":79.7757,"ARG_OF_PERICENTER":176.8906,"MEAN_ANOMALY":183.2322,"EPHEMERIS_TYPE":0,"CLASSIFICATION_TYPE":"U","NORAD_CAT_ID":26070,"ELEMENT_SET_NO":999,"REV_AT_EPOCH":34977,"BSTAR":-5.2334195e-5,"MEAN_MOTION_DOT":-1.51e-6,"MEAN_MOTION_DDOT":0},{"OBJECT_NAME":"TITAN 4B R/B","OBJECT_ID":"2000-047B","EPOCH":"2026-03-18T05:50:44.340864","MEAN_MOTION":15.09646678,"ECCENTRICITY":0.00389274,"INCLINATION":67.9914,"RA_OF_ASC_NODE":16.4554,"ARG_OF_PERICENTER":25.2226,"MEAN_ANOMALY":335.0812,"EPHEMERIS_TYPE":0,"CLASSIFICATION_TYPE":"U","NORAD_CAT_ID":26474,"ELEMENT_SET_NO":999,"REV_AT_EPOCH":39420,"BSTAR":0.00022558836,"MEAN_MOTION_DOT":3.567e-5,"MEAN_MOTION_DDOT":0},{"OBJECT_NAME":"ENVISAT","OBJECT_ID":"2002-009A","EPOCH":"2026-03-18T07:33:24.467328","MEAN_MOTION":14.39040042,"ECCENTRICITY":0.00013048,"INCLINATION":98.3743,"RA_OF_ASC_NODE":30.7075,"ARG_OF_PERICENTER":82.4766,"MEAN_ANOMALY":37.9972,"EPHEMERIS_TYPE":0,"CLASSIFICATION_TYPE":"U","NORAD_CAT_ID":27386,"ELEMENT_SET_NO":999,"REV_AT_EPOCH":26041,"BSTAR":4.8034527e-5,"MEAN_MOTION_DOT":1.06e-6,"MEAN_MOTION_DDOT":0},{"OBJECT_NAME":"IDEFIX & ARIANE 42P R/B","OBJECT_ID":"2002-021B","EPOCH":"2026-03-18T07:20:17.663136","MEAN_MOTION":14.31032071,"ECCENTRICITY":0.00120737,"INCLINATION":98.588,"RA_OF_ASC_NODE":15.8095,"ARG_OF_PERICENTER":156.9215,"MEAN_ANOMALY":203.2513,"EPHEMERIS_TYPE":0,"CLASSIFICATION_TYPE":"U","NORAD_CAT_ID":27422,"ELEMENT_SET_NO":999,"REV_AT_EPOCH":24525,"BSTAR":0.00011210973,"MEAN_MOTION_DOT":2.52e-6,"MEAN_MOTION_DDOT":0},{"OBJECT_NAME":"AQUA","OBJECT_ID":"2002-022A","EPOCH":"2026-03-18T05:58:55.983648","MEAN_MOTION":14.61997303,"ECCENTRICITY":7.203e-5,"INCLINATION":98.4189,"RA_OF_ASC_NODE":44.771,"ARG_OF_PERICENTER":109.536,"MEAN_ANOMALY":2.3209,"EPHEMERIS_TYPE":0,"CLASSIFICATION_TYPE":"U","NORAD_CAT_ID":27424,"ELEMENT_SET_NO":999,"REV_AT_EPOCH":26998,"BSTAR":0.00019328141,"MEAN_MOTION_DOT":9.2e-6,"MEAN_MOTION_DDOT":0},{"OBJECT_NAME":"CZ-4B R/B","OBJECT_ID":"2002-024C","EPOCH":"2026-03-18T03:14:10.205376","MEAN_MOTION":14.14549075,"ECCENTRICITY":0.00500623,"INCLINATION":98.882,"RA_OF_ASC_NODE":130.4983,"ARG_OF_PERICENTER":0.3099,"MEAN_ANOMALY":53.6,"EPHEMERIS_TYPE":0,"CLASSIFICATION_TYPE":"U","NORAD_CAT_ID":27432,"ELEMENT_SET_NO":999,"REV_AT_EPOCH":23043,"BSTAR":4.3568122e-5,"MEAN_MOTION_DOT":4.0e-7,"MEAN_MOTION_DDOT":0},{"OBJECT_NAME":"MIDORI II (ADEOS-II)","OBJECT_ID":"2002-056A","EPOCH":"2026-03-17T20:30:05.709600","MEAN_MOTION":14.29291363,"ECCENTRICITY":0.00012715,"INCLINATION":98.7782,"RA_OF_ASC_NODE":35.3889,"ARG_OF_PERICENTER":32.8211,"MEAN_ANOMALY":327.305,"EPHEMERIS_TYPE":0,"CLASSIFICATION_TYPE":"U","NORAD_CAT_ID":27597,"ELEMENT_SET_NO":999,"REV_AT_EPOCH":21146,"BSTAR":0.00012060305,"MEAN_MOTION_DOT":2.62e-6,"MEAN_MOTION_DDOT":0},{"OBJECT_NAME":"H-2A R/B","OBJECT_ID":"2002-056E","EPOCH":"2026-03-17T20:54:34.246944","MEAN_MOTION":14.33766047,"ECCENTRICITY":0.00709648,"INCLINATION":98.3217,"RA_OF_ASC_NODE":36.926,"ARG_OF_PERICENTER":136.4791,"MEAN_ANOMALY":278.6876,"EPHEMERIS_TYPE":0,"CLASSIFICATION_TYPE":"U","NORAD_CAT_ID":27601,"ELEMENT_SET_NO":999,"REV_AT_EPOCH":21528,"BSTAR":9.3046738e-5,"MEAN_MOTION_DOT":2.25e-6,"MEAN_MOTION_DDOT":0},{"OBJECT_NAME":"CZ-4B R/B","OBJECT_ID":"2003-049C","EPOCH":"2026-03-17T23:30:27.532512","MEAN_MOTION":14.55027899,"ECCENTRICITY":0.00476257,"INCLINATION":98.6886,"RA_OF_ASC_NODE":72.21,"ARG_OF_PERICENTER":205.1673,"MEAN_ANOMALY":154.7202,"EPHEMERIS_TYPE":0,"CLASSIFICATION_TYPE":"U","NORAD_CAT_ID":28059,"ELEMENT_SET_NO":999,"REV_AT_EPOCH":18780,"BSTAR":8.1697324e-5,"MEAN_MOTION_DOT":3.05e-6,"MEAN_MOTION_DDOT":0},{"OBJECT_NAME":"CZ-2C R/B","OBJECT_ID":"2004-012C","EPOCH":"2026-03-18T02:42:38.378016","MEAN_MOTION":15.65523615,"ECCENTRICITY":0.00129385,"INCLINATION":97.7213,"RA_OF_ASC_NODE":143.2093,"ARG_OF_PERICENTER":274.9057,"MEAN_ANOMALY":85.0725,"EPHEMERIS_TYPE":0,"CLASSIFICATION_TYPE":"U","NORAD_CAT_ID":28222,"ELEMENT_SET_NO":999,"REV_AT_EPOCH":20559,"BSTAR":0.00046804359,"MEAN_MOTION_DOT":0.00047115,"MEAN_MOTION_DDOT":0},{"OBJECT_NAME":"SL-16 R/B","OBJECT_ID":"2004-021B","EPOCH":"2026-03-17T19:13:34.942368","MEAN_MOTION":14.14594515,"ECCENTRICITY":0.0004473,"INCLINATION":70.9997,"RA_OF_ASC_NODE":215.4694,"ARG_OF_PERICENTER":358.9291,"MEAN_ANOMALY":1.1821,"EPHEMERIS_TYPE":0,"CLASSIFICATION_TYPE":"U","NORAD_CAT_ID":28353,"ELEMENT_SET_NO":999,"REV_AT_EPOCH":12398,"BSTAR":-0.00011064759,"MEAN_MOTION_DOT":-2.6e-6,"MEAN_MOTION_DDOT":0},{"OBJECT_NAME":"CZ-4B R/B","OBJECT_ID":"2004-035C","EPOCH":"2026-03-18T02:08:08.026656","MEAN_MOTION":15.29210484,"ECCENTRICITY":0.00302142,"INCLINATION":97.3482,"RA_OF_ASC_NODE":111.2311,"ARG_OF_PERICENTER":300.3467,"MEAN_ANOMALY":59.4786,"EPHEMERIS_TYPE":0,"CLASSIFICATION_TYPE":"U","NORAD_CAT_ID":28415,"ELEMENT_SET_NO":999,"REV_AT_EPOCH":18119,"BSTAR":0.00021182498,"MEAN_MOTION_DOT":6.008e-5,"MEAN_MOTION_DDOT":0},{"OBJECT_NAME":"CZ-2C R/B","OBJECT_ID":"2004-046B","EPOCH":"2026-03-17T18:13:47.314560","MEAN_MOTION":14.26994914,"ECCENTRICITY":0.01403137,"INCLINATION":98.1981,"RA_OF_ASC_NODE":351.2411,"ARG_OF_PERICENTER":130.6844,"MEAN_ANOMALY":230.663,"EPHEMERIS_TYPE":0,"CLASSIFICATION_TYPE":"U","NORAD_CAT_ID":28480,"ELEMENT_SET_NO":999,"REV_AT_EPOCH":10965,"BSTAR":6.088965e-5,"MEAN_MOTION_DOT":1.24e-6,"MEAN_MOTION_DDOT":0},{"OBJECT_NAME":"ARIANE 5 R/B","OBJECT_ID":"2004-049H","EPOCH":"2026-03-18T01:17:14.801856","MEAN_MOTION":14.85280858,"ECCENTRICITY":0.00833634,"INCLINATION":98.264,"RA_OF_ASC_NODE":245.8245,"ARG_OF_PERICENTER":324.668,"MEAN_ANOMALY":34.9026,"EPHEMERIS_TYPE":0,"CLASSIFICATION_TYPE":"U","NORAD_CAT_ID":28499,"ELEMENT_SET_NO":999,"REV_AT_EPOCH":14703,"BSTAR":7.9089064e-5,"MEAN_MOTION_DOT":6.56e-6,"MEAN_MOTION_DDOT":0},{"OBJECT_NAME":"CZ-2D R/B","OBJECT_ID":"2005-024B","EPOCH":"2026-03-18T07:14:29.998176","MEAN_MOTION":15.60919437,"ECCENTRICITY":0.000432,"INCLINATION":97.3582,"RA_OF_ASC_NODE":92.7685,"ARG_OF_PERICENTER":22.6307,"MEAN_ANOMALY":337.514,"EPHEMERIS_TYPE":0,"CLASSIFICATION_TYPE":"U","NORAD_CAT_ID":28738,"ELEMENT_SET_NO":999,"REV_AT_EPOCH":14112,"BSTAR":0.00038180578,"MEAN_MOTION_DOT":0.00031912,"MEAN_MOTION_DDOT":0}]
